OBJECT_NAME,OBJECT_ID,EPOCH,MEAN_MOTION,ECCENTRICITY,INCLINATION,RA_OF_ASC_NODE,ARG_OF_PERICENTER,MEAN_ANOMALY,EPHEMERIS_TYPE,CLASSIFICATION_TYPE,NORAD_CAT_ID,ELEMENT_SET_NO,REV_AT_EPOCH,BSTAR,MEAN_MOTION_DOT,MEAN_MOTION_DDOT
INTELSAT 906 (IS-906),2002-041A,2026-06-15T04:52:21.721152,1.00272553,.00046233,5.7978,72.9468,5.0095,322.7640,0,U,27513,999,8700,0,.12E-6,0
NIMIQ 2,2002-062A,2026-06-15T09:15:58.112928,1.00271703,.0005404,9.4422,56.9187,22.4536,214.0960,0,U,27632,999,4416,0,-.73E-6,0
USA 167,2003-008A,2026-06-15T09:02:44.814912,1.00272544,.0003741,10.9579,43.4256,311.7355,282.4838,0,U,27691,999,675,0,-.2E-7,0
USA 169 (MILSTAR-2 4),2003-012A,2026-06-15T10:35:52.358208,1.00273160,.0100557,12.3469,29.8569,9.0969,175.8759,0,U,27711,999,3293,0,-.25E-5,0
ASIASAT 4,2003-014A,2026-06-15T10:03:38.085120,1.00270696,.0002989,4.6999,75.7700,13.3547,113.0301,0,U,27718,999,4528,0,-.223E-5,0
HELLAS-SAT 2,2003-020A,2026-06-14T23:19:33.168288,1.00271028,.00023769,7.3494,67.9104,21.1969,154.0253,0,U,27811,999,4282,0,-.85E-6,0
THURAYA-2,2003-026A,2026-06-15T06:25:27.660000,1.00273298,.0003052,8.8377,31.9864,10.7919,1.1441,0,U,27825,999,8433,0,.122E-5,0
OPTUS C1,2003-028B,2026-06-15T12:20:38.790240,1.00272413,.000544,6.8857,69.4300,11.7869,163.4842,0,U,27831,999,5304,0,-.154E-5,0
USA 170,2003-040A,2026-06-14T20:03:59.090112,1.00268006,.00015411,10.4956,47.9714,60.9171,119.5294,0,U,27875,999,3297,0,.123E-5,0
GALAXY 13 (HORIZONS-1),2003-044A,2026-06-15T11:05:42.148032,1.00270247,.0002291,1.4150,83.8870,350.6255,205.6508,0,U,27954,999,4655,0,.134E-5,0
YAMAL 202,2003-053A,2026-06-15T12:12:38.850336,1.00271339,.0003317,6.3387,70.9579,359.5282,180.0502,0,U,28089,999,8268,0,-.82E-6,0
UFO 11 (USA 174),2003-057A,2026-06-15T03:22:09.594048,1.00274329,.00026033,8.9338,33.8388,55.6554,300.0868,0,U,28117,999,8242,0,-.108E-5,0
USA 176 (DSP 22),2004-004A,2026-06-11T23:21:41.975136,1.00406369,.0001239,12.0550,26.1076,290.9902,243.8917,0,U,28158,999,3288,0,-.286E-5,0
ABS-4 (MOBISAT-1),2004-007A,2026-06-15T06:09:38.854944,1.00273079,.0005175,6.0369,72.0318,10.4500,334.4387,0,U,28184,999,5231,0,.38E-6,0
INTELSAT 10-02,2004-022A,2026-06-15T09:37:58.788768,1.00262785,.0000258,0.0119,315.6890,52.7483,38.7301,0,U,28358,999,8053,0,-.1E-6,0
ANIK F2,2004-027A,2026-06-15T10:49:15.884256,1.00271386,.0004,3.2828,79.4713,7.4845,227.9663,0,U,28378,999,4124,0,-.49E-6,0
AMC-15,2004-041A,2026-06-15T08:10:01.189920,1.00271456,.0002106,0.0171,335.3772,120.9115,184.8039,0,U,28446,999,7928,0,-.85E-6,0
NSS-10,2005-003A,2026-06-15T00:54:23.291712,1.00270601,.00026548,6.4443,70.4795,2.6584,166.3401,0,U,28526,999,5313,0,-.252E-5,0
INMARSAT 4-F1,2005-009A,2026-06-14T19:05:11.796288,1.00271327,.0002458,5.1647,42.7552,42.6985,282.0547,0,U,28628,999,7764,0,.34E-6,0
DIRECTV 8,2005-019A,2026-06-15T10:47:01.099392,1.00271459,.0002768,0.0170,319.0843,129.4924,217.8559,0,U,28659,999,7705,0,.4E-7,0
GALAXY 28 (G-28),2005-022A,2026-06-15T11:13:13.588032,1.00270923,.0002866,3.2943,78.9551,4.8916,321.1103,0,U,28702,999,5195,0,-.2E-5,0
THAICOM 4,2005-028A,2026-06-15T08:29:45.994848,1.00270350,.0001579,0.2412,85.9101,349.1064,75.5655,0,U,28786,999,5223,0,-.359E-5,0
ANIK F1R,2005-036A,2026-06-15T09:15:31.422240,1.00270634,.0004008,4.3083,76.6020,0.1225,218.5426,0,U,28868,999,4643,0,-.75E-6,0
SYRACUSE 3A,2005-041B,2026-06-15T09:51:34.986240,1.00274334,.0002974,4.6383,75.8608,349.0784,33.3189,0,U,28885,999,7573,0,.128E-5,0
INMARSAT 4-F2,2005-044A,2026-06-15T08:41:51.880128,1.00270350,.000279,5.0924,43.7023,34.6752,99.2253,0,U,28899,999,7550,0,-.261E-5,0
METEOSAT-9 (MSG-2),2005-049B,2026-06-14T22:59:52.482048,1.00271050,.0001586,9.3563,54.1897,342.1562,257.5139,0,U,28912,999,697,0,.122E-5,0
EUTELSAT 174A,2005-052A,2026-06-15T12:12:38.850336,1.00270806,.0006114,4.2156,76.5479,7.4219,176.9394,0,U,28924,999,5231,0,.8E-7,0
ECHOSTAR 10,2006-003A,2026-06-15T10:49:30.859104,1.00270608,.0001421,0.0168,354.5227,64.9825,256.4134,0,U,28935,999,7444,0,-.52E-6,0
SPAINSAT,2006-007A,2026-06-15T08:26:21.372864,1.00270079,.0004615,0.5587,86.5556,356.3985,277.0962,0,U,28945,999,7419,0,-.214E-5,0
JCSAT-5A,2006-010A,2026-06-15T10:15:57.708864,1.00269703,.0001876,1.1052,84.2334,19.2267,86.2769,0,U,29045,999,7375,0,-.326E-5,0
ASTRA 1KR,2006-012A,2026-06-15T08:01:03.748224,1.00270539,.0003245,0.4693,83.2000,355.8866,323.7719,0,U,29055,999,4567,0,.122E-5,0
GALAXY 16 (G-16),2006-023A,2026-06-15T09:10:22.041120,1.00270359,.0002455,0.0037,289.1157,166.4359,206.6978,0,U,29236,999,7295,0,-.123E-5,0
