INTELSAT 906 (IS-906)   
1 27513U 02041A   26166.20302918  .00000012  00000+0  00000+0 0  9992
2 27513   5.7978  72.9468 0004623   5.0095 322.7640  1.00272553 87000
NIMIQ 2                 
1 27632U 02062A   26166.38608927 -.00000073  00000+0  00000+0 0  9993
2 27632   9.4422  56.9187 0005404  22.4536 214.0960  1.00271703 44162
USA 167                 
1 27691U 03008A   26166.37690758 -.00000002  00000+0  00000+0 0  9993
2 27691  10.9579  43.4256 0003741 311.7355 282.4838  1.00272544  6750
USA 169 (MILSTAR-2 4)   
1 27711U 03012A   26166.44157822 -.00000250  00000+0  00000+0 0  9994
2 27711  12.3469  29.8569 0100557   9.0969 175.8759  1.00273160 32934
ASIASAT 4               
1 27718U 03014A   26166.41919080 -.00000223  00000+0  00000+0 0  9992
2 27718   4.6999  75.7700 0002989  13.3547 113.0301  1.00270696 45280
HELLAS-SAT 2            
1 27811U 03020A   26165.97191167 -.00000085  00000+0  00000+0 0  9997
2 27811   7.3494  67.9104 0002376  21.1969 154.0253  1.00271028 42828
THURAYA-2               
1 27825U 03026A   26166.26768125  .00000122  00000+0  00000+0 0  9996
2 27825   8.8377  31.9864 0003052  10.7919   1.1441  1.00273298 84338
OPTUS C1                
1 27831U 03028B   26166.51433785 -.00000154  00000+0  00000+0 0  9990
2 27831   6.8857  69.4300 0005440  11.7869 163.4842  1.00272413 53044
USA 170                 
1 27875U 03040A   26165.83610058  .00000123  00000+0  00000+0 0  9991
2 27875  10.4956  47.9714 0001541  60.9171 119.5294  1.00268006 32978
GALAXY 13 (HORIZONS-1)  
1 27954U 03044A   26166.46229338  .00000134  00000+0  00000+0 0  9992
2 27954   1.4150  83.8870 0002291 350.6255 205.6508  1.00270247 46553
YAMAL 202               
1 28089U 03053A   26166.50878299 -.00000082  00000+0  00000+0 0  9996
2 28089   6.3387  70.9579 0003317 359.5282 180.0502  1.00271339 82687
UFO 11 (USA 174)        
1 28117U 03057A   26166.14038882 -.00000108  00000+0  00000+0 0  9997
2 28117   8.9338  33.8388 0002603  55.6554 300.0868  1.00274329 82425
USA 176 (DSP 22)        
1 28158U 04004A   26162.97340249 -.00000286  00000+0  00000+0 0  9992
2 28158  12.0550  26.1076 0001239 290.9902 243.8917  1.00406369 32881
ABS-4 (MOBISAT-1)       
1 28184U 04007A   26166.25669971  .00000038  00000+0  00000+0 0  9999
2 28184   6.0369  72.0318 0005175  10.4500 334.4387  1.00273079 52310
INTELSAT 10-02          
1 28358U 04022A   26166.40137487 -.00000010  00000+0  00000+0 0  9999
2 28358   0.0119 315.6890 0000258  52.7483  38.7301  1.00262785 80534
ANIK F2                 
1 28378U 04027A   26166.45087829 -.00000049  00000+0  00000+0 0  9997
2 28378   3.2828  79.4713 0004000   7.4845 227.9663  1.00271386 41240
AMC-15                  
1 28446U 04041A   26166.34029155 -.00000085  00000+0  00000+0 0  9995
2 28446   0.0171 335.3772 0002106 120.9115 184.8039  1.00271456 79288
NSS-10                  
1 28526U 05003A   26166.03776958 -.00000252  00000+0  00000+0 0  9995
2 28526   6.4443  70.4795 0002654   2.6584 166.3401  1.00270601 53130
INMARSAT 4-F1           
1 28628U 05009A   26165.79527542  .00000034  00000+0  00000+0 0  9996
2 28628   5.1647  42.7552 0002458  42.6985 282.0547  1.00271327 77644
DIRECTV 8               
1 28659U 05019A   26166.44931828  .00000004  00000+0  00000+0 0  9997
2 28659   0.0170 319.0843 0002768 129.4924 217.8559  1.00271459 77057
GALAXY 28 (G-28)        
1 28702U 05022A   26166.46751838 -.00000200  00000+0  00000+0 0  9992
2 28702   3.2943  78.9551 0002866   4.8916 321.1103  1.00270923 51952
THAICOM 4               
1 28786U 05028A   26166.35400457 -.00000359  00000+0  00000+0 0  9991
2 28786   0.2412  85.9101 0001579 349.1064  75.5655  1.00270350 52238
ANIK F1R                
1 28868U 05036A   26166.38578035 -.00000075  00000+0  00000+0 0  9997
2 28868   4.3083  76.6020 0004008   0.1225 218.5426  1.00270634 46433
SYRACUSE 3A             
1 28885U 05041B   26166.41082160  .00000128  00000+0  00000+0 0  9993
2 28885   4.6383  75.8608 0002974 349.0784  33.3189  1.00274334 75731
INMARSAT 4-F2           
1 28899U 05044A   26166.36240602 -.00000261  00000+0  00000+0 0  9991
2 28899   5.0924  43.7023 0002790  34.6752  99.2253  1.00270350 75507
METEOSAT-9 (MSG-2)      
1 28912U 05049B   26165.95824632  .00000122  00000+0  00000+0 0  9992
2 28912   9.3563  54.1897 0001586 342.1562 257.5139  1.00271050  6977
EUTELSAT 174A           
1 28924U 05052A   26166.50878299  .00000008  00000+0  00000+0 0  9992
2 28924   4.2156  76.5479 0006114   7.4219 176.9394  1.00270806 52312
ECHOSTAR 10             
1 28935U 06003A   26166.45105161 -.00000052  00000+0  00000+0 0  9996
2 28935   0.0168 354.5227 0001421  64.9825 256.4134  1.00270608 74442
SPAINSAT                
1 28945U 06007A   26166.35163626 -.00000214  00000+0  00000+0 0  9990
2 28945   0.5587  86.5556 0004615 356.3985 277.0962  1.00270079 74195
JCSAT-5A                
1 29045U 06010A   26166.42775126 -.00000326  00000+0  00000+0 0  9992
2 29045   1.1052  84.2334 0001876  19.2267  86.2769  1.00269703 73752
ASTRA 1KR               
1 29055U 06012A   26166.33407116  .00000122  00000+0  00000+0 0  9999
2 29055   0.4693  83.2000 0003245 355.8866 323.7719  1.00270539 45674
GALAXY 16 (G-16)        
1 29236U 06023A   26166.38219955 -.00000123  00000+0  00000+0 0  9991
2 29236   0.0037 289.1157 0002455 166.4359 206.6978  1.00270359 72955
